[Satellite]
VERSION=1.1
NAME=YUBILEINY (RS-30)
NICKNAME=YUBILEINY (RS-30)
TLE1=1 32953U 08025A   15055.47495334  .00000010  00000-0 -13620-7 0  9993
TLE2=2 32953  82.5011  44.3291 0018131 329.3179  30.6849 12.43057101306601
